IRNSS-1F-I06
1 41384U 16015A   23124.24910470  .00000178  00000+0  00000+0 0  9996
2 41384   2.6900 135.9620 0020292 196.7222  11.4459  1.00279242 26233
